NORAD_CAT_ID,OBJECT_NAME,OBJECT_TYPE,EPOCH,MEAN_MOTION,ECCENTRICITY,INCLINATION,RA_OF_ASC_NODE,ARG_OF_PERICENTER,MEAN_ANOMALY,BSTAR,MEAN_MOTION_DOT,MEAN_MOTION_DDOT,TLE_LINE0,TLE_LINE1,TLE_LINE2,SEMIMAJOR_AXIS,PERIOD,APOGEE,PERIGEE,DECAYED
52337.0,STARLINK-3797,PAYLOAD,2022-08-29 22:00:00,15.08812662,0.0002315,53.2142,230.1545,48.0562,162.3404,0.0018868,0.00029846,0.0,0 STARLINK-3797,1 52337U 22045G   22241.91667824  .00029846  00000-0  18868-2 0  9999,2 52337  53.2142 230.1545 0002315  48.0562 162.3404 15.08812662  1308,6917.964,95.439,541.43,538.227,0.0
52337.0,STARLINK-3797,PAYLOAD,2022-08-30 06:00:00,15.08818768,0.0002483,53.2141,228.6598,44.7293,177.24900000000005,0.0021885,0.00034694,0.0,0 STARLINK-3797,1 52337U 22045G   22242.25001157  .00034694  00000-0  21885-2 0  9998,2 52337  53.2141 228.6598 0002483  44.7293 177.2490 15.08818768 21278,6917.945,95.439,541.528,538.0930000000002,0.0
52337.0,STARLINK-3797,PAYLOAD,2022-08-30 14:00:01,15.08872153,0.000242,53.2139,227.1628,43.3064,190.2424,-0.0020421,-0.00032672,0.0,0 STARLINK-3797,1 52337U 22045G   22242.58334491 -.00032672  00000-0 -20421-2 0  9995,2 52337  53.2139 227.1628 0002420  43.3064 190.2424 15.08872153  1307,6917.781999999997,95.436,541.321,537.9730000000002,0.0
52337.0,STARLINK-3797,PAYLOAD,2022-08-30 22:00:00,15.088487699999998,0.0002309,53.2141,225.6652,48.2963,196.8757,0.0018244,0.00028874,0.0,0 STARLINK-3797,1 52337U 22045G   22242.91667824  .00028874  00000-0  18244-2 0  9998,2 52337  53.2141 225.6652 0002309  48.2963 196.8757 15.08848770  1307,6917.854,95.437,541.316,538.121,0.0
52337.0,STARLINK-3797,PAYLOAD,2022-08-31 14:00:01,15.08861577,0.0002404,53.214,222.6733,42.9036,225.5036,-0.0026088,-0.00041595,0.0,0 STARLINK-3797,1 52337U 22045G   22243.58334491 -.00041595  00000-0 -26088-2 0  9995,2 52337  53.2140 222.6733 0002404  42.9036 225.5036 15.08861577  1301,6917.814,95.436,541.342,538.016,0.0
52337.0,STARLINK-3797,PAYLOAD,2022-08-31 22:00:00,15.08834241,0.0002335999999999,53.2142,221.1758,48.0107,232.0006,0.0018074999999999,0.00028592,0.0,0 STARLINK-3797,1 52337U 22045G   22243.91667824  .00028592  00000-0  18075-2 0  9998,2 52337  53.2142 221.1758 0002336  48.0107 232.0006 15.08834241 21528,6917.898,95.438,541.379,538.1469999999998,0.0
52337.0,STARLINK-3797,PAYLOAD,2022-09-01 14:00:01,15.08867507,0.0002499,53.2143,218.1839,44.3169,258.9546,-0.0022126999999999,-0.00035359,0.0,0 STARLINK-3797,1 52337U 22045G   22244.58335648 -.00035359  00000-0 -22127-2 0  9992,2 52337  53.2143 218.1839 0002499  44.3169 258.9546 15.08867507 21620,6917.795999999999,95.436,541.39,537.933,0.0
52337.0,STARLINK-3797,PAYLOAD,2022-09-01 22:00:00,15.08859069,0.0002404,53.2145,216.6865,48.3623,266.4615,-0.001223,-0.00019711,0.0,0 STARLINK-3797,1 52337U 22045G   22244.91667824 -.00019711  00000-0 -12230-2 0  9991,2 52337  53.2145 216.6865 0002404  48.3623 266.4615 15.08859069  1307,6917.821999999999,95.436,541.35,538.024,0.0
52337.0,STARLINK-3797,PAYLOAD,2022-09-02 06:00:00,15.08826784,0.0002602,53.2145,215.1919,44.3276,282.1103,0.00053921,8.301e-05,0.0,0 STARLINK-3797,1 52337U 22045G   22245.25001157  .00008301  00000-0  53921-3 0  9994,2 52337  53.2145 215.1919 0002602  44.3276 282.1103 15.08826784 21724,6917.920999999999,95.438,541.586,537.986,0.0
52337.0,STARLINK-3797,PAYLOAD,2022-09-02 14:00:01,15.08853591,0.0002532,53.2145,213.6946,44.57,293.4471,-0.0021588,-0.00034496,0.0,0 STARLINK-3797,1 52337U 22045G   22245.58334491 -.00034496  00000-0 -21588-2 0  9999,2 52337  53.2145 213.6946 0002532  44.5700 293.4471 15.08853591  1304,6917.839,95.437,541.455,537.952,0.0
52337.0,STARLINK-3797,PAYLOAD,2022-09-02 22:00:01,15.08839035,0.0002475,53.2149,212.1973,49.1463,300.5306,0.0013859999999999,0.00021839,0.0,0 STARLINK-3797,1 52337U 22045G   22245.91668981  .00021839  00000-0  13860-2 0  9999,2 52337  53.2149 212.1973 0002475  49.1463 300.5306 15.08839035  1309,6917.8830000000025,95.438,541.461,538.036,0.0
52337.0,STARLINK-3797,PAYLOAD,2022-09-03 08:00:01,15.0882639,0.0002675,53.2147,210.3288,45.0137,49.1121,0.0030712,0.00048913,0.0,0 STARLINK-3797,1 52337U 22045G   22246.33334491  .00048913  00000-0  30712-2 0  9999,2 52337  53.2147 210.3288 0002675  45.0137  49.1121 15.08826390 21898,6917.922,95.438,541.638,537.936,0.0
52337.0,STARLINK-3797,PAYLOAD,2022-09-03 14:00:01,15.08872648,0.0002575,53.2147,209.2052,46.6351,326.1841,-0.0026065999999999,-0.00041573,0.0,0 STARLINK-3797,1 52337U 22045G   22246.58334491 -.00041573  00000-0 -26066-2 0  9990,2 52337  53.2147 209.2052 0002575  46.6351 326.1841 15.08872648  1306,6917.781,95.435,541.427,537.864,0.0
52337.0,STARLINK-3797,PAYLOAD,2022-09-03 22:00:00,15.08852761,0.0002466,53.215,207.7082,50.0839,334.3581,-0.00036909,-6.159999999999999e-05,0.0,0 STARLINK-3797,1 52337U 22045G   22246.91667824 -.00006160  00000-0 -36909-3 0  9997,2 52337  53.2150 207.7082 0002466  50.0839 334.3581 15.08852761  1301,6917.840999999999,95.437,541.4119999999998,538.0,0.0
52337.0,STARLINK-3797,PAYLOAD,2022-09-04 14:00:01,15.08869499,0.0002451,53.2146,204.7158,46.7768,0.9436,-0.0036515999999999,-0.00057986,0.0,0 STARLINK-3797,1 52337U 22045G   22247.58335648 -.00057986  00000-0 -36516-2 0  9992,2 52337  53.2146 204.7158 0002451  46.7768   0.9436 15.08869499  1305,6917.79,95.436,541.351,537.96,0.0
52337.0,STARLINK-3797,PAYLOAD,2022-09-04 20:00:01,15.08822935,0.0002319,53.2147,203.5928,49.5593,276.8093,0.0029463,0.00046894,0.0,0 STARLINK-3797,1 52337U 22045G   22247.83334491  .00046894  00000-0  29463-2 0  9992,2 52337  53.2147 203.5928 0002319  49.5593 276.8093 15.08822935  1305,6917.933000000001,95.439,541.4019999999998,538.193,0.0
52337.0,STARLINK-3797,PAYLOAD,2022-09-05 06:00:00,15.08825069,0.0002456,53.2146,201.7243,45.1088,25.7658,0.00068974,0.00010702,0.0,0 STARLINK-3797,1 52337U 22045G   22248.25001157  .00010702  00000-0  68974-3 0  9999,2 52337  53.2146 201.7243 0002456  45.1088  25.7658 15.08825069 22185,6917.926,95.438,541.49,538.092,0.0
52337.0,STARLINK-3797,PAYLOAD,2022-09-05 14:00:01,15.08849211,0.0002288,53.2144,200.2265,46.3245,36.1324,-0.001475,-0.00023693,0.0,0 STARLINK-3797,1 52337U 22045G   22248.58334491 -.00023693  00000-0 -14750-2 0  9992,2 52337  53.2144 200.2265 0002288  46.3245  36.1324 15.08849211  1304,6917.852,95.437,541.3,538.134,0.0
52337.0,STARLINK-3797,PAYLOAD,2022-09-05 22:00:00,15.08835232,0.0002193,53.2144,198.7299,48.6975,45.3492,-0.0010693,-0.00017264,0.0,0 STARLINK-3797,1 52337U 22045G   22248.91667824 -.00017264  00000-0 -10693-2 0  9997,2 52337  53.2144 198.7299 0002193  48.6975  45.3492 15.08835232  1308,6917.895,95.438,541.2769999999998,538.243,0.0
52337.0,STARLINK-3797,PAYLOAD,2022-09-06 06:00:00,15.08813929,0.0002333,53.2143,197.2352,43.7991,61.8366,0.0014876,0.0002345,0.0,0 STARLINK-3797,1 52337U 22045G   22249.25001157  .00023450  00000-0  14876-2 0  9995,2 52337  53.2143 197.2352 0002333  43.7991  61.8366 15.08813929 22339,6917.96,95.439,541.439,538.211,0.0
52337.0,STARLINK-3797,PAYLOAD,2022-09-06 14:00:01,15.08820939,0.0002151999999999,53.2141,195.7373,45.5827,71.6274,-0.0015922,-0.00025526,0.0,0 STARLINK-3797,1 52337U 22045G   22249.58334491 -.00025526  00000-0 -15922-2 0  9992,2 52337  53.2141 195.7373 0002152  45.5827  71.6274 15.08820939  1300,6917.939,95.439,541.2919999999998,538.315,0.0
52337.0,STARLINK-3797,PAYLOAD,2022-09-06 22:00:00,15.088219699999998,0.0002133,53.2142,194.2409,48.3619,80.4037,-0.00016279,-2.877e-05,0.0,0 STARLINK-3797,1 52337U 22045G   22249.91667824 -.00002877  00000-0 -16279-3 0  9999,2 52337  53.2142 194.2409 0002133  48.3619  80.4037 15.08821970 22432,6917.936,95.439,541.276,538.325,0.0
52337.0,STARLINK-3797,PAYLOAD,2022-09-07 14:00:01,15.08829066,0.0002174999999999,53.214,191.2482,47.3051,104.6071,0.00023089,3.387e-05,0.0,0 STARLINK-3797,1 52337U 22045G   22250.58334491  .00003387  00000-0  23089-3 0  9997,2 52337  53.2140 191.2482 0002175  47.3051 104.6071 15.08829066  1307,6917.9140000000025,95.438,541.283,538.274,0.0
52337.0,STARLINK-3797,PAYLOAD,2022-09-07 22:00:00,15.08850004,0.0002215,53.2143,189.7518,50.3839,113.1059,-0.00033421,-5.605e-05,0.0,0 STARLINK-3797,1 52337U 22045G   22250.91667824 -.00005605  00000-0 -33421-3 0  9991,2 52337  53.2143 189.7518 0002215  50.3839 113.1059 15.08850004 22585,6917.85,95.437,541.247,538.183,0.0
52337.0,STARLINK-3797,PAYLOAD,2022-09-08 14:00:01,15.08836477,0.0002171,53.2145,186.7588,47.0413,139.6645,-0.00045861,-7.579e-05,0.0,0 STARLINK-3797,1 52337U 22045G   22251.58334491 -.00007579  00000-0 -45861-3 0  9999,2 52337  53.2145 186.7588 0002171  47.0413 139.6645 15.08836477  1302,6917.891,95.438,541.258,538.254,0.0
52337.0,STARLINK-3797,PAYLOAD,2022-09-08 22:00:00,15.08854975,0.0002201,53.2147,185.2627,49.4025,148.8907,-0.00032943,-5.53e-05,0.0,0 STARLINK-3797,1 52337U 22045G   22251.91667824 -.00005530  00000-0 -32943-3 0  9997,2 52337  53.2147 185.2627 0002201  49.4025 148.8907 15.08854975  1307,6917.835,95.437,541.222,538.177,0.0
52337.0,STARLINK-3797,PAYLOAD,2022-09-09 00:00:02,15.08858341,0.0002251,53.2146,184.889,47.4634,243.7912,-0.0015592,-0.00025031,0.0,0 STARLINK-3797,1 52337U 22045G   22252.00002315 -.00025031  00000-0 -15592-2 0  9994,2 52337  53.2146 184.8890 0002251  47.4634 243.7912 15.08858341 22745,6917.824000000001,95.436,541.247,538.132,0.0
52337.0,STARLINK-3797,PAYLOAD,2022-09-09 14:00:01,15.08830148,0.0002125,53.2152,182.2695,45.6695,175.834,0.0010004,0.00015665,0.0,0 STARLINK-3797,1 52337U 22045G   22252.58334491  .00015665  00000-0  10004-2 0  9993,2 52337  53.2152 182.2695 0002125  45.6695 175.8340 15.08830148  1308,6917.911,95.438,541.246,538.305,0.0
52337.0,STARLINK-3797,PAYLOAD,2022-09-09 22:00:00,15.08855522,0.0002143,53.2154,180.7736,47.3109,185.7803,-0.0024664,-0.00039345,0.0,0 STARLINK-3797,1 52337U 22045G   22252.91667824 -.00039345  00000-0 -24664-2 0  9999,2 52337  53.2154 180.7736 0002143  47.3109 185.7803 15.08855522 22881,6917.833000000001,95.437,541.18,538.215,0.0
